OBJECT_NAME,OBJECT_ID,EPOCH,MEAN_MOTION,ECCENTRICITY,INCLINATION,RA_OF_ASC_NODE,ARG_OF_PERICENTER,MEAN_ANOMALY,EPHEMERIS_TYPE,CLASSIFICATION_TYPE,NORAD_CAT_ID,ELEMENT_SET_NO,REV_AT_EPOCH,BSTAR,MEAN_MOTION_DOT,MEAN_MOTION_DDOT
STARLINK-30598,2023-160E,2026-06-14T12:14:45.057408,15.27577057,.00008213,43.0042,251.0707,244.0099,116.0669,0,U,58079,999,14775,.14666799E-4,.142E-5,0
STARLINK-30603,2023-160F,2026-06-14T12:20:19.340736,15.27561852,.00018145,43.0095,251.1018,276.6033,83.4613,0,U,58080,999,14775,-.78223706E-4,-.2413E-4,0
STARLINK-30602,2023-160G,2026-06-14T22:28:44.148576,15.26103925,.0001198,42.9981,251.6763,290.8270,69.2453,0,U,58081,999,14778,.66999E-3,.17412E-3,0
STARLINK-30610,2023-160H,2026-06-15T03:04:43.718592,15.27577481,.0000945,43.0018,247.9615,271.8620,88.2123,0,U,58082,999,14784,.18565E-3,.485E-4,0
STARLINK-30551,2023-160J,2026-06-13T23:40:47.258112,15.27577774,.00013383,43.0035,257.4185,275.3458,84.7241,0,U,58083,999,14763,.1062182E-4,.3E-6,0
STARLINK-30586,2023-160K,2026-06-14T12:19:35.558400,15.27576903,.00007098,43.0042,254.4917,244.1355,115.9424,0,U,58084,999,14771,.9507583E-5,0,0
STARLINK-30609,2023-160L,2026-06-13T17:35:16.759104,15.27558780,.00016356,43.0040,258.9539,233.5688,126.5013,0,U,58085,999,14759,.9823127E-4,.244E-4,0
STARLINK-30583,2023-160M,2026-06-14T12:30:43.051968,15.27568620,.00015616,42.9943,254.5486,261.2461,98.8214,0,U,58086,999,14771,.943268E-5,-.3E-7,0
STARLINK-30557,2023-160N,2026-06-14T12:36:14.817600,15.27576692,.00010013,42.9999,254.5774,286.1595,73.9147,0,U,58087,999,14771,-.20021687E-4,-.813E-5,0
STARLINK-30591,2023-160P,2026-06-14T22:44:14.786304,15.27576084,.0001222,43.0073,248.3247,270.8904,89.1808,0,U,58088,999,14782,.5349E-5,-.115E-5,0
STARLINK-30584,2023-160Q,2026-06-12T13:00:48.536352,15.27575668,.00014564,43.0038,262.0942,264.9314,95.1372,0,U,58089,999,14745,.26582102E-4,.469E-5,0
STARLINK-30590,2023-160R,2026-06-14T12:43:38.259552,15.27604294,.00016856,42.9973,254.5975,268.7909,91.2749,0,U,58090,999,14771,-.19003284E-3,-.5492E-4,0
STARLINK-30608,2023-160S,2026-06-13T12:55:21.935712,15.27575341,.00011709,43.0088,256.6686,265.4309,94.6409,0,U,58091,999,14760,.7921496E-5,-.44E-6,0
STARLINK-30615,2023-160T,2026-06-14T22:38:53.886336,15.27601709,.0001339,43.0028,249.1472,264.0757,95.9942,0,U,58092,999,14781,-.17898E-3,-.5187E-4,0
STARLINK-30578,2023-160U,2026-06-14T23:02:44.724768,15.27575531,.000234,43.0066,248.4165,281.8175,78.2414,0,U,58093,999,14782,.5293E-6,-.248E-5,0
STARLINK-30574,2023-160V,2026-06-14T22:57:09.107424,15.27649537,.0004479,43.0111,248.3906,279.1636,80.8709,0,U,58094,999,14782,-.59437E-3,-.16622E-3,0
STARLINK-30570,2023-160W,2026-06-14T12:12:53.599680,15.27592233,.00014929,42.9974,251.0469,161.3772,198.7134,0,U,58095,999,14775,.11096705E-3,.2794E-4,0
STARLINK-30581,2023-160X,2026-06-14T12:29:34.814976,15.27565739,.00018145,43.0029,251.1254,282.5656,77.4993,0,U,58096,999,14775,.75051402E-4,.1803E-4,0
STARLINK-30594,2023-161A,2026-06-15T04:00:01.998720,15.33318845,.0002064,53.1612,72.6678,22.0615,105.2295,0,U,58097,999,585,.32011E-1,.1148808E-1,0
STARLINK-30614,2023-161B,2026-06-15T00:22:41.866176,15.30195118,.000142,53.1610,73.3943,89.1186,270.9977,0,U,58098,999,14932,-.66648E-5,-.557E-5,0
STARLINK-30607,2023-161C,2026-06-15T00:27:22.723200,15.30178687,.0001423,53.1605,63.4219,101.9664,258.1496,0,U,58099,999,14945,.11165E-3,.2947E-4,0
STARLINK-30600,2023-161D,2026-06-15T01:14:01.545792,15.34391376,.0001427,53.1618,72.9009,63.3129,296.8020,0,U,58100,999,14933,.66746E-4,.1879E-4,0
STARLINK-30605,2023-161E,2026-06-15T00:16:37.292736,15.30195848,.0001182,53.1596,73.3687,91.3956,268.7180,0,U,58101,999,14932,-.78431E-4,-.2681E-4,0
STARLINK-30592,2023-161F,2026-06-15T04:00:01.998720,15.34351137,.0001474,53.1600,72.4185,77.2647,176.7428,0,U,58102,999,590,.17608E-2,.59497E-3,0
STARLINK-30589,2023-161G,2026-06-15T01:09:45.881280,15.30184146,.0001468,53.1617,73.4043,116.0421,244.0731,0,U,58103,999,14932,.11737E-3,.3117E-4,0
STARLINK-30617,2023-161H,2026-06-15T04:00:01.998720,15.34351432,.0001242,53.1592,72.8404,66.0448,234.0173,0,U,58104,999,585,.21414E-2,.72563E-3,0
STARLINK-30616,2023-161J,2026-06-15T00:09:43.005600,15.34394605,.0001277,53.1607,59.6886,110.7828,249.3312,0,U,58105,999,14950,-.12021E-4,-.782E-5,0
STARLINK-30612,2023-161K,2026-06-14T23:30:19.734048,15.34397928,.0001345,53.1614,59.5267,94.0745,266.0411,0,U,58106,999,14950,-.34391E-4,-.1538E-4,0
STARLINK-30421,2023-161L,2026-06-15T00:36:52.291008,15.34377670,.0001373,53.1607,59.0697,101.2146,258.9011,0,U,58107,999,14952,-.60076E-4,-.2404E-4,0
STARLINK-30611,2023-161M,2026-06-14T23:24:15.096672,15.34400180,.0001335,53.1609,59.4453,86.2145,273.9010,0,U,58108,999,14951,-.85493E-5,-.665E-5,0
