STARLINK-30598          
1 58079U 23160E   26165.51024372  .00000142  00000+0  14667-4 0  9999
2 58079  43.0042 251.0707 0000821 244.0099 116.0669 15.27577057147754
STARLINK-30603          
1 58080U 23160F   26165.51411274 -.00002413  00000+0 -78224-4 0  9996
2 58080  43.0095 251.1018 0001814 276.6033  83.4613 15.27561852147754
STARLINK-30602          
1 58081U 23160G   26165.93662209  .00017412  00000+0  66999-3 0  9997
2 58081  42.9981 251.6763 0001198 290.8270  69.2453 15.26103925147784
STARLINK-30610          
1 58082U 23160H   26166.12828378  .00004850  00000+0  18565-3 0  9999
2 58082  43.0018 247.9615 0000945 271.8620  88.2123 15.27577481147844
STARLINK-30551          
1 58083U 23160J   26164.98665808  .00000030  00000+0  10622-4 0  9992
2 58083  43.0035 257.4185 0001338 275.3458  84.7241 15.27577774147631
STARLINK-30586          
1 58084U 23160K   26165.51360600  .00000000  00000+0  95076-5 0  9999
2 58084  43.0042 254.4917 0000709 244.1355 115.9424 15.27576903147713
STARLINK-30609          
1 58085U 23160L   26164.73283286  .00002440  00000+0  98231-4 0  9992
2 58085  43.0040 258.9539 0001635 233.5688 126.5013 15.27558780147592
STARLINK-30583          
1 58086U 23160M   26165.52133162 -.00000003  00000+0  94327-5 0  9995
2 58086  42.9943 254.5486 0001561 261.2461  98.8214 15.27568620147713
STARLINK-30557          
1 58087U 23160N   26165.52517150 -.00000813  00000+0 -20022-4 0  9999
2 58087  42.9999 254.5774 0001001 286.1595  73.9147 15.27576692147715
STARLINK-30591          
1 58088U 23160P   26165.94739336 -.00000115  00000+0  53490-5 0  9998
2 58088  43.0073 248.3247 0001222 270.8904  89.1808 15.27576084147826
STARLINK-30584          
1 58089U 23160Q   26163.54222843  .00000469  00000+0  26582-4 0  9995
2 58089  43.0038 262.0942 0001456 264.9314  95.1372 15.27575668147450
STARLINK-30590          
1 58090U 23160R   26165.53030393 -.00005492  00000+0 -19003-3 0  9997
2 58090  42.9973 254.5975 0001685 268.7909  91.2749 15.27604294147718
STARLINK-30608          
1 58091U 23160S   26164.53844833 -.00000044  00000+0  79215-5 0  9999
2 58091  43.0088 256.6686 0001170 265.4309  94.6409 15.27575341147605
STARLINK-30615          
1 58092U 23160T   26165.94367924 -.00005187  00000+0 -17898-3 0  9998
2 58092  43.0028 249.1472 0001339 264.0757  95.9942 15.27601709147816
STARLINK-30578          
1 58093U 23160U   26165.96023987 -.00000248  00000+0  52930-6 0  9990
2 58093  43.0066 248.4165 0002340 281.8175  78.2414 15.27575531147826
STARLINK-30574          
1 58094U 23160V   26165.95635541 -.00016622  00000+0 -59437-3 0  9995
2 58094  43.0111 248.3906 0004479 279.1636  80.8709 15.27649537147821
STARLINK-30570          
1 58095U 23160W   26165.50895370  .00002794  00000+0  11097-3 0  9998
2 58095  42.9974 251.0469 0001492 161.3772 198.7134 15.27592233147750
STARLINK-30581          
1 58096U 23160X   26165.52054184  .00001803  00000+0  75051-4 0  9992
2 58096  43.0029 251.1254 0001814 282.5656  77.4993 15.27565739147759
STARLINK-30594          
1 58097U 23161A   26166.16668980  .01148808  00000+0  32011-1 0  9994
2 58097  53.1612  72.6678 0002064  22.0615 105.2295 15.33318845  5856
STARLINK-30614          
1 58098U 23161B   26166.01576234 -.00000557  00000+0 -66648-5 0  9995
2 58098  53.1610  73.3943 0001420  89.1186 270.9977 15.30195118149321
STARLINK-30607          
1 58099U 23161C   26166.01901300  .00002947  00000+0  11165-3 0  9997
2 58099  53.1605  63.4219 0001423 101.9664 258.1496 15.30178687149459
STARLINK-30600          
1 58100U 23161D   26166.05140678  .00001879  00000+0  66746-4 0  9996
2 58100  53.1618  72.9009 0001427  63.3129 296.8020 15.34391376149334
STARLINK-30605          
1 58101U 23161E   26166.01154274 -.00002681  00000+0 -78431-4 0  9998
2 58101  53.1596  73.3687 0001182  91.3956 268.7180 15.30195848149320
STARLINK-30592          
1 58102U 23161F   26166.16668980  .00059497  00000+0  17608-2 0  9991
2 58102  53.1600  72.4185 0001474  77.2647 176.7428 15.34351137  5901
STARLINK-30589          
1 58103U 23161G   26166.04844770  .00003117  00000+0  11737-3 0  9998
2 58103  53.1617  73.4043 0001468 116.0421 244.0731 15.30184146149320
STARLINK-30617          
1 58104U 23161H   26166.16668980  .00072563  00000+0  21414-2 0  9992
2 58104  53.1592  72.8404 0001242  66.0448 234.0173 15.34351432  5856
STARLINK-30616          
1 58105U 23161J   26166.00674775 -.00000782  00000+0 -12021-4 0  9997
2 58105  53.1607  59.6886 0001277 110.7828 249.3312 15.34394605149502
STARLINK-30612          
1 58106U 23161K   26165.97939507 -.00001538  00000+0 -34391-4 0  9994
2 58106  53.1614  59.5267 0001345  94.0745 266.0411 15.34397928149508
STARLINK-30421          
1 58107U 23161L   26166.02560522 -.00002404  00000+0 -60076-4 0  9991
2 58107  53.1607  59.0697 0001373 101.2146 258.9011 15.34377670149520
STARLINK-30611          
1 58108U 23161M   26165.97517473 -.00000665  00000+0 -85493-5 0  9990
2 58108  53.1609  59.4453 0001335  86.2145 273.9010 15.34400180149514
